IRIDIUM 150             
1 43257U 18030J   24243.18452714  .00000582  00000+0  20072-3 0  9998
2 43257  86.4006 204.6049 0002077  85.8835 274.2598 14.34219038336155
IRIDIUM 143             
1 43258U 18030K   24243.37480348  .00000563  00000+0  19408-3 0  9994
2 43258  86.4006 204.5921 0002058  90.9932 269.1499 14.34221640336120
IRIDIUM 161             
1 43478U 18047C   24243.36859164  .00001210  00000+0  35363-3 0  9999
2 43478  86.4541   2.5352 0002008  93.5135 266.6295 14.43278009330548
IRIDIUM 152             
1 43479U 18047D   24243.41729261  .00000142  00000+0  43716-4 0  9995
2 43479  86.4017   2.3744 0002066  94.1840 265.9592 14.34218921328506
IRIDIUM 147             
1 43480U 18047E   24243.56317224  .00000371  00000+0  12528-3 0  9995
2 43480  86.4017   2.3070 0002235  92.7108 267.4344 14.34218763328516
IRIDIUM 110             
1 43481U 18047F   24243.56950892  .00000946  00000+0  33067-3 0  9999
2 43481  86.4021   2.3792 0002461  84.7515 275.3962 14.34224607328504
IRIDIUM 162             
1 43482U 18047G   24243.36231373  .00001221  00000+0  35704-3 0  9991
2 43482  86.4540   2.4370 0002199  85.9886 274.1566 14.43275728330539
IRIDIUM 160             
1 43569U 18061A   24243.51536377  .00000862  00000+0  30068-3 0  9990
2 43569  86.4015 330.7984 0002576  93.2749 266.8742 14.34225795319393
